[{"OBJECT_NAME":"STARLINK-3051","OBJECT_ID":"2021-082AD","EPOCH":"2026-03-09T22:33:35.704512","MEAN_MOTION":15.04613444,"ECCENTRICITY":0.00063206,"INCLINATION":69.9976,"RA_OF_ASC_NODE":271.1374,"ARG_OF_PERICENTER":260.859,"MEAN_ANOMALY":99.1858,"EPHEMERIS_TYPE":0,"CLASSIFICATION_TYPE":"U","NORAD_CAT_ID":49157,"ELEMENT_SET_NO":999,"REV_AT_EPOCH":24767,"BSTAR":0.00022798634,"MEAN_MOTION_DOT":3.112e-5,"MEAN_MOTION_DDOT":0},{"OBJECT_NAME":"COSMOS 2251 DEB","OBJECT_ID":"1993-036SS","EPOCH":"2026-03-09T22:59:54.978144","MEAN_MOTION":15.02003149,"ECCENTRICITY":0.00206055,"INCLINATION":74.0288,"RA_OF_ASC_NODE":253.6967,"ARG_OF_PERICENTER":277.4018,"MEAN_ANOMALY":234.4946,"EPHEMERIS_TYPE":0,"CLASSIFICATION_TYPE":"U","NORAD_CAT_ID":34449,"ELEMENT_SET_NO":999,"REV_AT_EPOCH":89999,"BSTAR":0.0029470254,"MEAN_MOTION_DOT":0.00038984,"MEAN_MOTION_DDOT":0}]
